{"type": "FeatureCollection", "features": [ {"type": "Feature", "properties": {"norad_id": 34058, "name": "COSMOS 2251 DEB", "group": "cosmos-2251-debris", "lat": -61.65134183064164, "lon": 144.48511994950178, "alt_km": 1197.1700403878567, "timestamp": "2025-12-13T13:34:35.434133+00:00", "meta": {"OBJECT_NAME": "COSMOS 2251 DEB", "OBJECT_ID": "1993-036JV", "EPOCH": "2025-12-12T15:16:35.251968", "MEAN_MOTION": 13.56075649, "ECCENTRICITY": 0.03779498, "INCLINATION": 73.9313, "RA_OF_ASC_NODE": 178.2798, "ARG_OF_PERICENTER": 173.5384, "MEAN_ANOMALY": 262.0377, "EPHEMERIS_TYPE": 0, "CLASSIFICATION_TYPE": "U", "NORAD_CAT_ID": 34058, "ELEMENT_SET_NO": 999, "REV_AT_EPOCH": 83141, "BSTAR": 0.0009728007, "MEAN_MOTION_DOT": 1.059e-05, "MEAN_MOTION_DDOT": 0}, "tle": {"line1": "1 34058U 93036JV  25346.63651912  .00001059  00000+0  97280-3 0  9997", "line2": "2 34058  73.9313 178.2798 0377949 173.5384 262.0377 13.56075649831410"}}, "geometry": {"type": "Point", "coordinates": [144.48511994950178, -61.65134183064164]}}, {"type": "Feature", "properties": {"norad_id": 34059, "name": "COSMOS 2251 DEB", "group": "cosmos-2251-debris", "lat": 70.34917685613945, "lon": -122.0025993452208, "alt_km": 722.043444793816, "timestamp": "2025-12-13T13:34:35.434142+00:00", "meta": {"OBJECT_NAME": "COSMOS 2251 DEB", "OBJECT_ID": "1993-036JW", "EPOCH": "2025-12-13T00:34:57.302112", "MEAN_MOTION": 14.52950208, "ECCENTRICITY": 0.00186285, "INCLINATION": 74.0377, "RA_OF_ASC_NODE": 185.7398, "ARG_OF_PERICENTER": 262.9992, "MEAN_ANOMALY": 224.6324, "EPHEMERIS_TYPE": 0, "CLASSIFICATION_TYPE": "U", "NORAD_CAT_ID": 34059, "ELEMENT_SET_NO": 999, "REV_AT_EPOCH": 88463, "BSTAR": 0.0011157878, "MEAN_MOTION_DOT": 4.585e-05, "MEAN_MOTION_DDOT": 0}, "tle": {"line1": "1 34059U 93036JW  25347.02427433  .00004585  00000+0  11158-2 0  9997", "line2": "2 34059  74.0377 185.7398 0018628 262.9992 224.6324 14.52950208884634"}}, "geometry": {"type": "Point", "coordinates": [-122.0025993452208, 70.34917685613945]}}, {"type": "Feature", "properties": {"norad_id": 34061, "name": "COSMOS 2251 DEB", "group": "cosmos-2251-debris", "lat": 26.901597975812848, "lon": -89.787871453917, "alt_km": 746.4025768798119, "timestamp": "2025-12-13T13:34:35.434151+00:00", "meta": {"OBJECT_NAME": "COSMOS 2251 DEB", "OBJECT_ID": "1993-036JY", "EPOCH": "2025-12-12T13:15:51.004224", "MEAN_MOTION": 14.40357324, "ECCENTRICITY": 0.00205315, "INCLINATION": 74.0393, "RA_OF_ASC_NODE": 263.7349, "ARG_OF_PERICENTER": 340.6483, "MEAN_ANOMALY": 196.6907, "EPHEMERIS_TYPE": 0, "CLASSIFICATION_TYPE": "U", "NORAD_CAT_ID": 34061, "ELEMENT_SET_NO": 999, "REV_AT_EPOCH": 88177, "BSTAR": 0.0005529609, "MEAN_MOTION_DOT": 1.732e-05, "MEAN_MOTION_DDOT": 0}, "tle": {"line1": "1 34061U 93036JY  25346.55267366  .00001732  00000+0  55296-3 0  9997", "line2": "2 34061  74.0393 263.7349 0020531 340.6483 196.6907 14.40357324881777"}}, "geometry": {"type": "Point", "coordinates": [-89.787871453917, 26.901597975812848]}}, {"type": "Feature", "properties": {"norad_id": 34062, "name": "COSMOS 2251 DEB", "group": "cosmos-2251-debris", "lat": -72.51104288233238, "lon": 21.778514015244625, "alt_km": 604.747536949998, "timestamp": "2025-12-13T13:34:35.434160+00:00", "meta": {"OBJECT_NAME": "COSMOS 2251 DEB", "OBJECT_ID": "1993-036JZ", "EPOCH": "2025-12-12T12:19:02.729856", "MEAN_MOTION": 14.78653327, "ECCENTRICITY": 0.00746851, "INCLINATION": 74.0279, "RA_OF_ASC_NODE": 138.4814, "ARG_OF_PERICENTER": 217.6273, "MEAN_ANOMALY": 204.3371, "EPHEMERIS_TYPE": 0, "CLASSIFICATION_TYPE": "U", "NORAD_CAT_ID": 34062, "ELEMENT_SET_NO": 999, "REV_AT_EPOCH": 88592, "BSTAR": 0.0039978404, "MEAN_MOTION_DOT": 0.00030804, "MEAN_MOTION_DDOT": 0}, "tle": {"line1": "1 34062U 93036JZ  25346.51322604  .00030804  00000+0  39978-2 0  9991", "line2": "2 34062  74.0279 138.4814 0074685 217.6273 204.3371 14.78653327885921"}}, "geometry": {"type": "Point", "coordinates": [21.778514015244625, -72.51104288233238]}}, {"type": "Feature", "properties": {"norad_id": 34064, "name": "COSMOS 2251 DEB", "group": "cosmos-2251-debris", "lat": 7.2070992165463705, "lon": -88.58866794051893, "alt_km": 739.0304473632505, "timestamp": "2025-12-13T13:34:35.434169+00:00", "meta": {"OBJECT_NAME": "COSMOS 2251 DEB", "OBJECT_ID": "1993-036KB", "EPOCH": "2025-12-12T13:10:13.156032", "MEAN_MOTION": 14.42337736, "ECCENTRICITY": 0.00221163, "INCLINATION": 74.0328, "RA_OF_ASC_NODE": 271.2222, "ARG_OF_PERICENTER": 337.6367, "MEAN_ANOMALY": 151.6698, "EPHEMERIS_TYPE": 0, "CLASSIFICATION_TYPE": "U", "NORAD_CAT_ID": 34064, "ELEMENT_SET_NO": 999, "REV_AT_EPOCH": 88139, "BSTAR": 0.00089612754, "MEAN_MOTION_DOT": 2.943e-05, "MEAN_MOTION_DDOT": 0}, "tle": {"line1": "1 34064U 93036KB  25346.54876338  .00002943  00000+0  89613-3 0  9999", "line2": "2 34064  74.0328 271.2222 0022116 337.6367 151.6698 14.42337736881393"}}, "geometry": {"type": "Point", "coordinates": [-88.58866794051893, 7.2070992165463705]}}, {"type": "Feature", "properties": {"norad_id": 34065, "name": "COSMOS 2251 DEB", "group": "cosmos-2251-debris", "lat": 7.6425418779222785, "lon": -101.19885678670444, "alt_km": 755.1106261779842, "timestamp": "2025-12-13T13:34:35.434178+00:00", "meta": {"OBJECT_NAME": "COSMOS 2251 DEB", "OBJECT_ID": "1993-036KC", "EPOCH": "2025-12-13T00:14:13.155936", "MEAN_MOTION": 14.38063219, "ECCENTRICITY": 0.00163912, "INCLINATION": 74.0358, "RA_OF_ASC_NODE": 257.6232, "ARG_OF_PERICENTER": 355.0641, "MEAN_ANOMALY": 16.6514, "EPHEMERIS_TYPE": 0, "CLASSIFICATION_TYPE": "U", "NORAD_CAT_ID": 34065, "ELEMENT_SET_NO": 999, "REV_AT_EPOCH": 88209, "BSTAR": 0.00026081364, "MEAN_MOTION_DOT": 7.65e-06, "MEAN_MOTION_DDOT": 0}, "tle": {"line1": "1 34065U 93036KC  25347.00987449  .00000765  00000+0  26081-3 0  9998", "line2": "2 34065  74.0358 257.6232 0016391 355.0641  16.6514 14.38063219882095"}}, "geometry": {"type": "Point", "coordinates": [-101.19885678670444, 7.6425418779222785]}}, {"type": "Feature", "properties": {"norad_id": 34070, "name": "COSMOS 2251 DEB", "group": "cosmos-2251-debris", "lat": 7.437991886963421, "lon": 116.79033391159214, "alt_km": 649.8615712615901, "timestamp": "2025-12-13T13:34:35.434187+00:00", "meta": {"OBJECT_NAME": "COSMOS 2251 DEB", "OBJECT_ID": "1993-036KH", "EPOCH": "2025-12-12T10:11:25.609344", "MEAN_MOTION": 14.77013846, "ECCENTRICITY": 0.00186888, "INCLINATION": 74.0002, "RA_OF_ASC_NODE": 116.8846, "ARG_OF_PERICENTER": 232.8796, "MEAN_ANOMALY": 189.7923, "EPHEMERIS_TYPE": 0, "CLASSIFICATION_TYPE": "U", "NORAD_CAT_ID": 34070, "ELEMENT_SET_NO": 999, "REV_AT_EPOCH": 88606, "BSTAR": 0.0037873874, "MEAN_MOTION_DOT": 0.00026857, "MEAN_MOTION_DDOT": 0}, "tle": {"line1": "1 34070U 93036KH  25346.42460196  .00026857  00000+0  37874-2 0  9995", "line2": "2 34070  74.0002 116.8846 0018688 232.8796 189.7923 14.77013846886069"}}, "geometry": {"type": "Point", "coordinates": [116.79033391159214, 7.437991886963421]}}, {"type": "Feature", "properties": {"norad_id": 34114, "name": "COSMOS 2251 DEB", "group": "cosmos-2251-debris", "lat": 23.84496268922414, "lon": -144.99058827769124, "alt_km": 719.7404824810274, "timestamp": "2025-12-13T13:34:35.434196+00:00", "meta": {"OBJECT_NAME": "COSMOS 2251 DEB", "OBJECT_ID": "1993-036KK", "EPOCH": "2025-12-12T14:29:00.025728", "MEAN_MOTION": 14.56379341, "ECCENTRICITY": 0.00473902, "INCLINATION": 74.0593, "RA_OF_ASC_NODE": 44.089, "ARG_OF_PERICENTER": 38.7679, "MEAN_ANOMALY": 112.9635, "EPHEMERIS_TYPE": 0, "CLASSIFICATION_TYPE": "U", "NORAD_CAT_ID": 34114, "ELEMENT_SET_NO": 999, "REV_AT_EPOCH": 87799, "BSTAR": 0.0023036857, "MEAN_MOTION_DOT": 0.00010363, "MEAN_MOTION_DDOT": 0}, "tle": {"line1": "1 34114U 93036KK  25346.60347252  .00010363  00000+0  23037-2 0  9992", "line2": "2 34114  74.0593  44.0890 0047390  38.7679 112.9635 14.56379341877991"}}, "geometry": {"type": "Point", "coordinates": [-144.99058827769124, 23.84496268922414]}}, {"type": "Feature", "properties": {"norad_id": 34115, "name": "COSMOS 2251 DEB", "group": "cosmos-2251-debris", "lat": -23.335920501709683, "lon": -126.79436712823761, "alt_km": 635.2343024845786, "timestamp": "2025-12-13T13:34:35.434205+00:00", "meta": {"OBJECT_NAME": "COSMOS 2251 DEB", "OBJECT_ID": "1993-036KL", "EPOCH": "2025-12-12T18:12:42.952608", "MEAN_MOTION": 14.79490401, "ECCENTRICITY": 0.00285173, "INCLINATION": 74.0059, "RA_OF_ASC_NODE": 241.9039, "ARG_OF_PERICENTER": 65.5068, "MEAN_ANOMALY": 294.9076, "EPHEMERIS_TYPE": 0, "CLASSIFICATION_TYPE": "U", "NORAD_CAT_ID": 34115, "ELEMENT_SET_NO": 999, "REV_AT_EPOCH": 89412, "BSTAR": 0.0014511856, "MEAN_MOTION_DOT": 0.00010905, "MEAN_MOTION_DDOT": 0}, "tle": {"line1": "1 34115U 93036KL  25346.75883047  .00010905  00000+0  14512-2 0  9996", "line2": "2 34115  74.0059 241.9039 0028517  65.5068 294.9076 14.79490401894122"}}, "geometry": {"type": "Point", "coordinates": [-126.79436712823761, -23.335920501709683]}}, {"type": "Feature", "properties": {"norad_id": 34116, "name": "COSMOS 2251 DEB", "group": "cosmos-2251-debris", "lat": -38.795929582594034, "lon": 14.51903653508856, "alt_km": 715.1861887304585, "timestamp": "2025-12-13T13:34:35.434214+00:00", "meta": {"OBJECT_NAME": "COSMOS 2251 DEB", "OBJECT_ID": "1993-036KM", "EPOCH": "2025-12-13T00:02:25.020672", "MEAN_MOTION": 14.52977742, "ECCENTRICITY": 0.00120097, "INCLINATION": 74.0403, "RA_OF_ASC_NODE": 182.2822, "ARG_OF_PERICENTER": 258.4191, "MEAN_ANOMALY": 253.2639, "EPHEMERIS_TYPE": 0, "CLASSIFICATION_TYPE": "U", "NORAD_CAT_ID": 34116, "ELEMENT_SET_NO": 999, "REV_AT_EPOCH": 88490, "BSTAR": 0.0011109362, "MEAN_MOTION_DOT": 4.561e-05, "MEAN_MOTION_DDOT": 0}, "tle": {"line1": "1 34116U 93036KM  25347.00167848  .00004561  00000+0  11109-2 0  9990", "line2": "2 34116  74.0403 182.2822 0012009 258.4191 253.2639 14.52977742884909"}}, "geometry": {"type": "Point", "coordinates": [14.51903653508856, -38.795929582594034]}}]}